[
    {
        "OBJECT_NAME": "GSAT0207 (GALILEO 15)",
        "OBJECT_ID": "2016-069A",
        "EPOCH": "2026-06-19T16:16:50.100096",
        "MEAN_MOTION": 1.70473648,
        "ECCENTRICITY": 0.00052179,
        "INCLINATION": 55.5002,
        "RA_OF_ASC_NODE": 101.0173,
        "ARG_OF_PERICENTER": 330.9828,
        "MEAN_ANOMALY": 28.9678,
        "EPHEMERIS_TYPE": 0,
        "CLASSIFICATION_TYPE": "U",
        "NORAD_CAT_ID": 41859,
        "ELEMENT_SET_NO": 999,
        "REV_AT_EPOCH": 5944,
        "BSTAR": 0,
        "MEAN_MOTION_DOT": -1.3e-07,
        "MEAN_MOTION_DDOT": 0
    },
    {
        "OBJECT_NAME": "GSAT0212 (GALILEO 16)",
        "OBJECT_ID": "2016-069B",
        "EPOCH": "2026-06-18T22:41:05.677440",
        "MEAN_MOTION": 1.7047368,
        "ECCENTRICITY": 0.00046071,
        "INCLINATION": 55.4975,
        "RA_OF_ASC_NODE": 101.0327,
        "ARG_OF_PERICENTER": 1.4092,
        "MEAN_ANOMALY": 358.5693,
        "EPHEMERIS_TYPE": 0,
        "CLASSIFICATION_TYPE": "U",
        "NORAD_CAT_ID": 41860,
        "ELEMENT_SET_NO": 999,
        "REV_AT_EPOCH": 5968,
        "BSTAR": 0,
        "MEAN_MOTION_DOT": -1.2e-07,
        "MEAN_MOTION_DDOT": 0
    },
    {
        "OBJECT_NAME": "GSAT0213 (GALILEO 17)",
        "OBJECT_ID": "2016-069C",
        "EPOCH": "2026-06-19T21:34:34.591008",
        "MEAN_MOTION": 1.70474134,
        "ECCENTRICITY": 0.00048149,
        "INCLINATION": 55.5002,
        "RA_OF_ASC_NODE": 101.0142,
        "ARG_OF_PERICENTER": 312.9981,
        "MEAN_ANOMALY": 46.9417,
        "EPHEMERIS_TYPE": 0,
        "CLASSIFICATION_TYPE": "U",
        "NORAD_CAT_ID": 41861,
        "ELEMENT_SET_NO": 999,
        "REV_AT_EPOCH": 5956,
        "BSTAR": 0,
        "MEAN_MOTION_DOT": -1.4e-07,
        "MEAN_MOTION_DDOT": 0
    },
    {
        "OBJECT_NAME": "GSAT0214 (GALILEO 18)",
        "OBJECT_ID": "2016-069D",
        "EPOCH": "2026-06-18T20:55:42.277440",
        "MEAN_MOTION": 1.7047352,
        "ECCENTRICITY": 0.0004721,
        "INCLINATION": 55.4996,
        "RA_OF_ASC_NODE": 101.0352,
        "ARG_OF_PERICENTER": 311.561,
        "MEAN_ANOMALY": 48.3755,
        "EPHEMERIS_TYPE": 0,
        "CLASSIFICATION_TYPE": "U",
        "NORAD_CAT_ID": 41862,
        "ELEMENT_SET_NO": 999,
        "REV_AT_EPOCH": 5967,
        "BSTAR": 0,
        "MEAN_MOTION_DOT": -1.2e-07,
        "MEAN_MOTION_DDOT": 0
    },
    {
        "OBJECT_NAME": "GSAT0215 (GALILEO 19)",
        "OBJECT_ID": "2017-079A",
        "EPOCH": "2026-06-18T18:36:27.330912",
        "MEAN_MOTION": 1.70474593,
        "ECCENTRICITY": 0.0003228,
        "INCLINATION": 55.073,
        "RA_OF_ASC_NODE": 221.463,
        "ARG_OF_PERICENTER": 264.08,
        "MEAN_ANOMALY": 95.966,
        "EPHEMERIS_TYPE": 0,
        "CLASSIFICATION_TYPE": "U",
        "NORAD_CAT_ID": 43055,
        "ELEMENT_SET_NO": 999,
        "REV_AT_EPOCH": 5301,
        "BSTAR": 0,
        "MEAN_MOTION_DOT": 2.8e-07,
        "MEAN_MOTION_DDOT": 0
    },
    {
        "OBJECT_NAME": "GSAT0216 (GALILEO 20)",
        "OBJECT_ID": "2017-079B",
        "EPOCH": "2026-06-17T21:26:22.395264",
        "MEAN_MOTION": 1.70474666,
        "ECCENTRICITY": 0.00043172,
        "INCLINATION": 55.0732,
        "RA_OF_ASC_NODE": 221.4873,
        "ARG_OF_PERICENTER": 276.2784,
        "MEAN_ANOMALY": 83.761,
        "EPHEMERIS_TYPE": 0,
        "CLASSIFICATION_TYPE": "U",
        "NORAD_CAT_ID": 43056,
        "ELEMENT_SET_NO": 999,
        "REV_AT_EPOCH": 5301,
        "BSTAR": 0,
        "MEAN_MOTION_DOT": 3.4e-07,
        "MEAN_MOTION_DDOT": 0
    },
    {
        "OBJECT_NAME": "GSAT0217 (GALILEO 21)",
        "OBJECT_ID": "2017-079C",
        "EPOCH": "2026-06-16T08:30:18.751680",
        "MEAN_MOTION": 1.70474228,
        "ECCENTRICITY": 0.00049855,
        "INCLINATION": 55.0717,
        "RA_OF_ASC_NODE": 221.5274,
        "ARG_OF_PERICENTER": 283.8791,
        "MEAN_ANOMALY": 76.1632,
        "EPHEMERIS_TYPE": 0,
        "CLASSIFICATION_TYPE": "U",
        "NORAD_CAT_ID": 43057,
        "ELEMENT_SET_NO": 999,
        "REV_AT_EPOCH": 5297,
        "BSTAR": 0,
        "MEAN_MOTION_DOT": 4.7e-07,
        "MEAN_MOTION_DDOT": 0
    },
    {
        "OBJECT_NAME": "GSAT0218 (GALILEO 22)",
        "OBJECT_ID": "2017-079D",
        "EPOCH": "2026-06-19T12:10:33.425184",
        "MEAN_MOTION": 1.70474769,
        "ECCENTRICITY": 0.0004305,
        "INCLINATION": 55.0708,
        "RA_OF_ASC_NODE": 221.4378,
        "ARG_OF_PERICENTER": 273.7481,
        "MEAN_ANOMALY": 86.2815,
        "EPHEMERIS_TYPE": 0,
        "CLASSIFICATION_TYPE": "U",
        "NORAD_CAT_ID": 43058,
        "ELEMENT_SET_NO": 999,
        "REV_AT_EPOCH": 5305,
        "BSTAR": 0,
        "MEAN_MOTION_DOT": 2.6e-07,
        "MEAN_MOTION_DDOT": 0
    },
    {
        "OBJECT_NAME": "GSAT0221 (GALILEO 25)",
        "OBJECT_ID": "2018-060A",
        "EPOCH": "2026-06-17T15:38:14.173152",
        "MEAN_MOTION": 1.70475954,
        "ECCENTRICITY": 0.00025957,
        "INCLINATION": 57.1692,
        "RA_OF_ASC_NODE": 341.7677,
        "ARG_OF_PERICENTER": 303.5364,
        "MEAN_ANOMALY": 56.4325,
        "EPHEMERIS_TYPE": 0,
        "CLASSIFICATION_TYPE": "U",
        "NORAD_CAT_ID": 43564,
        "ELEMENT_SET_NO": 999,
        "REV_AT_EPOCH": 4917,
        "BSTAR": 0,
        "MEAN_MOTION_DOT": -9e-07,
        "MEAN_MOTION_DDOT": 0
    },
    {
        "OBJECT_NAME": "GSAT0222 (GALILEO 26)",
        "OBJECT_ID": "2018-060B",
        "EPOCH": "2026-06-19T01:03:54.477792",
        "MEAN_MOTION": 1.70475706,
        "ECCENTRICITY": 0.00019994,
        "INCLINATION": 57.1718,
        "RA_OF_ASC_NODE": 341.7337,
        "ARG_OF_PERICENTER": 248.0862,
        "MEAN_ANOMALY": 111.8861,
        "EPHEMERIS_TYPE": 0,
        "CLASSIFICATION_TYPE": "U",
        "NORAD_CAT_ID": 43565,
        "ELEMENT_SET_NO": 999,
        "REV_AT_EPOCH": 4924,
        "BSTAR": 0,
        "MEAN_MOTION_DOT": -9.3e-07,
        "MEAN_MOTION_DDOT": 0
    },
    {
        "OBJECT_NAME": "GSAT0219 (GALILEO 23)",
        "OBJECT_ID": "2018-060C",
        "EPOCH": "2026-06-20T10:31:21.178848",
        "MEAN_MOTION": 1.70475997,
        "ECCENTRICITY": 0.0001949,
        "INCLINATION": 57.1711,
        "RA_OF_ASC_NODE": 341.6976,
        "ARG_OF_PERICENTER": 321.5861,
        "MEAN_ANOMALY": 38.3948,
        "EPHEMERIS_TYPE": 0,
        "CLASSIFICATION_TYPE": "U",
        "NORAD_CAT_ID": 43566,
        "ELEMENT_SET_NO": 999,
        "REV_AT_EPOCH": 4924,
        "BSTAR": 0,
        "MEAN_MOTION_DOT": -9.5e-07,
        "MEAN_MOTION_DDOT": 0
    },
    {
        "OBJECT_NAME": "GSAT0220 (GALILEO 24)",
        "OBJECT_ID": "2018-060D",
        "EPOCH": "2026-06-19T11:40:13.372032",
        "MEAN_MOTION": 1.7047576,
        "ECCENTRICITY": 0.00021117,
        "INCLINATION": 57.1712,
        "RA_OF_ASC_NODE": 341.7225,
        "ARG_OF_PERICENTER": 313.2574,
        "MEAN_ANOMALY": 46.7188,
        "EPHEMERIS_TYPE": 0,
        "CLASSIFICATION_TYPE": "U",
        "NORAD_CAT_ID": 43567,
        "ELEMENT_SET_NO": 999,
        "REV_AT_EPOCH": 4921,
        "BSTAR": 0,
        "MEAN_MOTION_DOT": -9.4e-07,
        "MEAN_MOTION_DDOT": 0
    },
    {
        "OBJECT_NAME": "GSAT0223 (GALILEO 27)",
        "OBJECT_ID": "2021-116A",
        "EPOCH": "2026-06-20T05:07:28.769088",
        "MEAN_MOTION": 1.70476002,
        "ECCENTRICITY": 0.000156,
        "INCLINATION": 57.1598,
        "RA_OF_ASC_NODE": 341.592,
        "ARG_OF_PERICENTER": 185.4323,
        "MEAN_ANOMALY": 351.7235,
        "EPHEMERIS_TYPE": 0,
        "CLASSIFICATION_TYPE": "U",
        "NORAD_CAT_ID": 49809,
        "ELEMENT_SET_NO": 999,
        "REV_AT_EPOCH": 2823,
        "BSTAR": 0,
        "MEAN_MOTION_DOT": -9.5e-07,
        "MEAN_MOTION_DDOT": 0
    }
]